start=new Date('2022-10-29T00:00:00.000Z').valueOf();
sats=[{"REV_AT_EPOCH":"13399","EPHEMERIS_TYPE":"0","EPOCH":"2022-10-28T20:17:04.835904","ARG_OF_PERICENTER":"255.9889","MEAN_ANOMALY":"104.1045","NORAD_CAT_ID":"45761","OBJECT_TYPE":"PAYLOAD","MEAN_MOTION":"15.82019651","CLASSIFICATION_TYPE":"U","PERIOD":"91.023","INCLINATION":"53.0356","BSTAR":"0.00038983000000","PERIAPSIS":"324.206","ELEMENT_SET_NO":"999","DECAY_DATE":null,"GP_ID":"216404410","TLE_LINE2":"2 45761  53.0356 144.9178 0000785 255.9889 104.1045 15.82019651133995","MEAN_MOTION_DDOT":"0.0000000000000","ECCENTRICITY":"0.00007850","REF_FRAME":"TEME","OBJECT_ID":"2020-038AH","RCS_SIZE":"LARGE","CENTER_NAME":"EARTH","SEMIMAJOR_AXIS":"6702.867","OBJECT_NAME":"STARLINK-1495","MEAN_ELEMENT_THEORY":"SGP4","LAUNCH_DATE":"2020-06-13","FILE":"3637111","TLE_LINE1":"1 45761U 20038AH  22301.84519486  .00081205  00000-0  38983-3 0  9999","RA_OF_ASC_NODE":"144.9178","MEAN_MOTION_DOT":"0.00081205","APOAPSIS":"325.258","TIME_SYSTEM":"UTC","SITE":"AFETR","COUNTRY_CODE":"US"},{"COUNTRY_CODE":"US","SITE":"AFETR","TIME_SYSTEM":"UTC","APOAPSIS":"534.839","MEAN_MOTION_DOT":"0.00017535","RA_OF_ASC_NODE":"325.9318","TLE_LINE1":"1 45762U 20038AJ  22301.79918517  .00017535  00000-0  10525-2 0  9998","FILE":"3637111","LAUNCH_DATE":"2020-06-13","MEAN_ELEMENT_THEORY":"SGP4","OBJECT_NAME":"STARLINK-1499","SEMIMAJOR_AXIS":"6911.244","CENTER_NAME":"EARTH","RCS_SIZE":"LARGE","OBJECT_ID":"2020-038AJ","REF_FRAME":"TEME","ECCENTRICITY":"0.00025030","TLE_LINE2":"2 45762  53.0543 325.9318 0002503  56.1731 303.9498 15.11013610131459","MEAN_MOTION_DDOT":"0.0000000000000","DECAY_DATE":null,"GP_ID":"216404660","PERIAPSIS":"531.380","ELEMENT_SET_NO":"999","INCLINATION":"53.0543","BSTAR":"0.00105250000000","PERIOD":"95.300","MEAN_MOTION":"15.11013610","CLASSIFICATION_TYPE":"U","OBJECT_TYPE":"PAYLOAD","ARG_OF_PERICENTER":"56.1731","EPOCH":"2022-10-28T19:10:49.598688","MEAN_ANOMALY":"303.9498","NORAD_CAT_ID":"45762","REV_AT_EPOCH":"13145","EPHEMERIS_TYPE":"0"},{"MEAN_MOTION":"15.06398024","CLASSIFICATION_TYPE":"U","OBJECT_TYPE":"PAYLOAD","PERIOD":"95.592","EPHEMERIS_TYPE":"0","REV_AT_EPOCH":"13141","ARG_OF_PERICENTER":"44.0646","MEAN_ANOMALY":"316.0531","EPOCH":"2022-10-28T19:19:33.322656","NORAD_CAT_ID":"45764","ECCENTRICITY":"0.00023730","TLE_LINE2":"2 45764  53.0559 328.8167 0002373  44.0646 316.0531 15.06398024131416","MEAN_MOTION_DDOT":"0.0000000000000","RCS_SIZE":"LARGE","REF_FRAME":"TEME","OBJECT_ID":"2020-038AL","INCLINATION":"53.0559","BSTAR":"0.00009066100000","ELEMENT_SET_NO":"999","PERIAPSIS":"545.576","DECAY_DATE":null,"GP_ID":"216405909","FILE":"3637111","TLE_LINE1":"1 45764U 20038AL  22301.80524679  .00001069  00000-0  90661-4 0  9990","LAUNCH_DATE":"2020-06-13","APOAPSIS":"548.863","RA_OF_ASC_NODE":"328.8167","MEAN_MOTION_DOT":"0.00001069","CENTER_NAME":"EARTH","SEMIMAJOR_AXIS":"6925.355","MEAN_ELEMENT_THEORY":"SGP4","OBJECT_NAME":"STARLINK-1502","COUNTRY_CODE":"US","TIME_SYSTEM":"UTC","SITE":"AFETR"},{"APOAPSIS":"548.706","RA_OF_ASC_NODE":"328.8502","MEAN_MOTION_DOT":"0.00000647","FILE":"3637111","TLE_LINE1":"1 45766U 20038AN  22301.79416596  .00000647  00000-0  62323-4 0  9993","LAUNCH_DATE":"2020-06-13","SEMIMAJOR_AXIS":"6925.319","MEAN_ELEMENT_THEORY":"SGP4","OBJECT_NAME":"STARLINK-1509","CENTER_NAME":"EARTH","COUNTRY_CODE":"US","TIME_SYSTEM":"UTC","SITE":"AFETR","PERIOD":"95.592","CLASSIFICATION_TYPE":"U","MEAN_MOTION":"15.06409559","OBJECT_TYPE":"PAYLOAD","EPOCH":"2022-10-28T19:03:35.938944","ARG_OF_PERICENTER":"45.4474","MEAN_ANOMALY":"314.6694","NORAD_CAT_ID":"45766","EPHEMERIS_TYPE":"0","REV_AT_EPOCH":"13139","RCS_SIZE":"LARGE","REF_FRAME":"TEME","OBJECT_ID":"2020-038AN","ECCENTRICITY":"0.00021970","TLE_LINE2":"2 45766  53.0543 328.8502 0002197  45.4474 314.6694 15.06409559131399","MEAN_MOTION_DDOT":"0.0000000000000","DECAY_DATE":null,"GP_ID":"216405659","INCLINATION":"53.0543","BSTAR":"0.00006232300000","PERIAPSIS":"545.663","ELEMENT_SET_NO":"999"},{"ECCENTRICITY":"0.00022990","MEAN_MOTION_DDOT":"0.0000000000000","TLE_LINE2":"2 45767  53.0533 328.8944 0002299  45.6547 314.4630 15.06414830131391","RCS_SIZE":"LARGE","REF_FRAME":"TEME","OBJECT_ID":"2020-038AP","BSTAR":"0.00059329000000","INCLINATION":"53.0533","ELEMENT_SET_NO":"999","PERIAPSIS":"545.576","DECAY_DATE":null,"GP_ID":"216404909","MEAN_MOTION":"15.06414830","CLASSIFICATION_TYPE":"U","OBJECT_TYPE":"PAYLOAD","PERIOD":"95.591","EPHEMERIS_TYPE":"0","REV_AT_EPOCH":"13139","EPOCH":"2022-10-28T18:52:58.806336","ARG_OF_PERICENTER":"45.6547","MEAN_ANOMALY":"314.4630","NORAD_CAT_ID":"45767","COUNTRY_CODE":"US","TIME_SYSTEM":"UTC","SITE":"AFETR","FILE":"3637111","TLE_LINE1":"1 45767U 20038AP  22301.78679174  .00008570  00000-0  59329-3 0  9990","LAUNCH_DATE":"2020-06-13","APOAPSIS":"548.760","RA_OF_ASC_NODE":"328.8944","MEAN_MOTION_DOT":"0.00008570","CENTER_NAME":"EARTH","SEMIMAJOR_AXIS":"6925.303","OBJECT_NAME":"STARLINK-1511","MEAN_ELEMENT_THEORY":"SGP4"},{"INCLINATION":"53.0541","BSTAR":"0.00013192000000","PERIAPSIS":"545.749","ELEMENT_SET_NO":"999","DECAY_DATE":null,"GP_ID":"216382133","MEAN_MOTION_DDOT":"0.0000000000000","TLE_LINE2":"2 45768  53.0541 330.4490 0002050  48.8795 311.2370 15.06414761132278","ECCENTRICITY":"0.00020500","REF_FRAME":"TEME","OBJECT_ID":"2020-038AQ","RCS_SIZE":"LARGE","REV_AT_EPOCH":"13227","EPHEMERIS_TYPE":"0","ARG_OF_PERICENTER":"48.8795","EPOCH":"2022-10-28T10:28:44.711040","MEAN_ANOMALY":"311.2370","NORAD_CAT_ID":"45768","OBJECT_TYPE":"PAYLOAD","CLASSIFICATION_TYPE":"U","MEAN_MOTION":"15.06414761","PERIOD":"95.591","TIME_SYSTEM":"UTC","SITE":"AFETR","COUNTRY_CODE":"US","CENTER_NAME":"EARTH","SEMIMAJOR_AXIS":"6925.303","MEAN_ELEMENT_THEORY":"SGP4","OBJECT_NAME":"STARLINK-1521","LAUNCH_DATE":"2020-06-13","FILE":"3636960","TLE_LINE1":"1 45768U 20038AQ  22301.43662860  .00001685  00000-0  13192-3 0  9995","RA_OF_ASC_NODE":"330.4490","MEAN_MOTION_DOT":"0.00001685","APOAPSIS":"548.588"},{"OBJECT_TYPE":"PAYLOAD","CLASSIFICATION_TYPE":"U","MEAN_MOTION":"15.06410514","PERIOD":"95.591","EPHEMERIS_TYPE":"0","REV_AT_EPOCH":"13107","EPOCH":"2022-10-28T11:03:14.691744","MEAN_ANOMALY":"311.0327","ARG_OF_PERICENTER":"49.0825","NORAD_CAT_ID":"45769","MEAN_MOTION_DDOT":"0.0000000000000","TLE_LINE2":"2 45769  53.0546 350.3610 0001882  49.0825 311.0327 15.06410514131077","ECCENTRICITY":"0.00018820","REF_FRAME":"TEME","OBJECT_ID":"2020-038AR","RCS_SIZE":"LARGE","BSTAR":"0.00010404000000","INCLINATION":"53.0546","ELEMENT_SET_NO":"999","PERIAPSIS":"545.878","GP_ID":"216372410","DECAY_DATE":null,"LAUNCH_DATE":"2020-06-13","FILE":"3636776","TLE_LINE1":"1 45769U 20038AR  22301.46058671  .00001269  00000-0  10404-3 0  9999","RA_OF_ASC_NODE":"350.3610","MEAN_MOTION_DOT":"0.00001269","APOAPSIS":"548.485","CENTER_NAME":"EARTH","SEMIMAJOR_AXIS":"6925.316","OBJECT_NAME":"STARLINK-1459","MEAN_ELEMENT_THEORY":"SGP4","COUNTRY_CODE":"US","TIME_SYSTEM":"UTC","SITE":"AFETR"},{"COUNTRY_CODE":"US","SITE":"AFETR","TIME_SYSTEM":"UTC","LAUNCH_DATE":"2020-06-13","TLE_LINE1":"1 45770U 20038AS  22301.72872941 -.00000095  00000-0  12570-4 0  9998","FILE":"3637111","MEAN_MOTION_DOT":"-0.00000095","RA_OF_ASC_NODE":"309.1617","APOAPSIS":"548.880","CENTER_NAME":"EARTH","OBJECT_NAME":"STARLINK-1462","MEAN_ELEMENT_THEORY":"SGP4","SEMIMAJOR_AXIS":"6925.325","TLE_LINE2":"2 45770  53.0537 309.1617 0002440  52.7000 307.4211 15.06407726131662","MEAN_MOTION_DDOT":"0.0000000000000","ECCENTRICITY":"0.00024400","OBJECT_ID":"2020-038AS","REF_FRAME":"TEME","RCS_SIZE":"LARGE","PERIAPSIS":"545.500","ELEMENT_SET_NO":"999","BSTAR":"0.00001257000000","INCLINATION":"53.0537","DECAY_DATE":null,"GP_ID":"216406159","OBJECT_TYPE":"PAYLOAD","CLASSIFICATION_TYPE":"U","MEAN_MOTION":"15.06407726","PERIOD":"95.592","EPHEMERIS_TYPE":"0","REV_AT_EPOCH":"13166","ARG_OF_PERICENTER":"52.7000","EPOCH":"2022-10-28T17:29:22.221024","NORAD_CAT_ID":"45770","MEAN_ANOMALY":"307.4211"},{"OBJECT_TYPE":"PAYLOAD","MEAN_MOTION":"15.06406646","CLASSIFICATION_TYPE":"U","PERIOD":"95.592","REV_AT_EPOCH":"13160","EPHEMERIS_TYPE":"0","EPOCH":"2022-10-28T07:46:51.103776","ARG_OF_PERICENTER":"56.2832","MEAN_ANOMALY":"303.8332","NORAD_CAT_ID":"45771","MEAN_MOTION_DDOT":"0.0000000000000","TLE_LINE2":"2 45771  53.0541 310.9744 0001842  56.2832 303.8332 15.06406646131604","ECCENTRICITY":"0.00018420","OBJECT_ID":"2020-038AT","REF_FRAME":"TEME","RCS_SIZE":"LARGE","ELEMENT_SET_NO":"999","PERIAPSIS":"545.918","INCLINATION":"53.0541","BSTAR":"0.00003512800000","DECAY_DATE":null,"GP_ID":"216372911","LAUNCH_DATE":"2020-06-13","TLE_LINE1":"1 45771U 20038AT  22301.32420259  .00000242  00000-0  35128-4 0  9993","FILE":"3636776","MEAN_MOTION_DOT":"0.00000242","RA_OF_ASC_NODE":"310.9744","APOAPSIS":"548.469","CENTER_NAME":"EARTH","MEAN_ELEMENT_THEORY":"SGP4","OBJECT_NAME":"STARLINK-1463","SEMIMAJOR_AXIS":"6925.328","COUNTRY_CODE":"US","SITE":"AFETR","TIME_SYSTEM":"UTC"},{"OBJECT_TYPE":"PAYLOAD","MEAN_MOTION":"15.06409105","CLASSIFICATION_TYPE":"U","PERIOD":"95.592","REV_AT_EPOCH":"13161","EPHEMERIS_TYPE":"0","MEAN_ANOMALY":"312.5256","EPOCH":"2022-10-28T07:30:56.618784","NORAD_CAT_ID":"45772","ARG_OF_PERICENTER":"47.5910","MEAN_MOTION_DDOT":"0.0000000000000","TLE_LINE2":"2 45772  53.0566 311.0204 0002097  47.5910 312.5256 15.06409105131614","ECCENTRICITY":"0.00020970","OBJECT_ID":"2020-038AU","REF_FRAME":"TEME","RCS_SIZE":"LARGE","PERIAPSIS":"545.733","ELEMENT_SET_NO":"999","BSTAR":"0.00013499000000","INCLINATION":"53.0566","DECAY_DATE":null,"GP_ID":"216373661","LAUNCH_DATE":"2020-06-13","TLE_LINE1":"1 45772U 20038AU  22301.31315531  .00001730  00000-0  13499-3 0  9998","FILE":"3636776","MEAN_MOTION_DOT":"0.00001730","RA_OF_ASC_NODE":"311.0204","APOAPSIS":"548.638","CENTER_NAME":"EARTH","OBJECT_NAME":"STARLINK-1470","MEAN_ELEMENT_THEORY":"SGP4","SEMIMAJOR_AXIS":"6925.321","COUNTRY_CODE":"US","SITE":"AFETR","TIME_SYSTEM":"UTC"}];
